{
  "type": "FeatureCollection",
  "features": [
    {
      "type": "Feature",
      "properties": {},
      "geometry": {
        "type": "Polygon",
        "coordinates": [
          [
            [73.8512556, 18.7670007],
            [73.8666876, 18.7664451],
            [73.8686826, 18.7558889],
            [73.8605265, 18.7526108],
            [73.8551283, 18.7517218],
            [73.8512556, 18.7527219],
            [73.8503755, 18.7552777],
            [73.8493193, 18.7578891],
            [73.8483804, 18.7598892],
            [73.847559, 18.7631117],
            [73.8484391, 18.7659451],
            [73.8512556, 18.7670007]
          ]
        ]
      }
    }
  ]
}
